{
  "type": "FeatureCollection",
  "features": [
    {
      "type": "Feature",
      "properties": {
        "norad_id": 66870,
        "name": "STARLINK-36114",
        "group": "last-30-days",
        "lat": -31.451824365314312,
        "lon": -1.8010526917993863,
        "alt_km": 417.6475270151441,
        "timestamp": "2025-12-26T11:25:43.986516+00:00",
        "meta_object_name": "STARLINK-36114",
        "meta_object_id": "2025-281Y",
        "meta_epoch": "2025-12-26T04:00:01.998720",
        "meta_mean_motion": 15.50484388,
        "meta_eccentricity": 0.0001177,
        "meta_inclination": 43.0003,
        "meta_ra_of_asc_node": 41.0333,
        "meta_arg_of_pericenter": 241.7127,
        "meta_mean_anomaly": 138.6718,
        "meta_ephemeris_type": 0,
        "meta_classification_type": "U",
        "meta_norad_cat_id": 66870,
        "meta_element_set_no": 999,
        "meta_rev_at_epoch": 344,
        "meta_bstar": 0.0012566,
        "meta_mean_motion_dot": 0.00073823,
        "meta_mean_motion_ddot": 0,
        "tle_line1": "1 66870U 25281Y   25360.16668980  .00073823  00000+0  12566-2 0  9999",
        "tle_line2": "2 66870  43.0003  41.0333 0001177 241.7127 138.6718 15.50484388  3444"
      },
      "geometry": {
        "type": "Point",
        "coordinates": [
          -1.8010526917993863,
          -31.451824365314312
        ]
      }
    },
    {
      "type": "Feature",
      "properties": {
        "norad_id": 66871,
        "name": "STARLINK-36095",
        "group": "last-30-days",
        "lat": -30.448766429521744,
        "lon": 0.106116664579747,
        "alt_km": 417.6939417878102,
        "timestamp": "2025-12-26T11:25:43.986526+00:00",
        "meta_object_name": "STARLINK-36095",
        "meta_object_id": "2025-281Z",
        "meta_epoch": "2025-12-26T04:00:01.998720",
        "meta_mean_motion": 15.50489077,
        "meta_eccentricity": 0.0001032,
        "meta_inclination": 43.0002,
        "meta_ra_of_asc_node": 41.0281,
        "meta_arg_of_pericenter": 237.2021,
        "meta_mean_anomaly": 145.1047,
        "meta_ephemeris_type": 0,
        "meta_classification_type": "U",
        "meta_norad_cat_id": 66871,
        "meta_element_set_no": 999,
        "meta_rev_at_epoch": 357,
        "meta_bstar": 0.0011649,
        "meta_mean_motion_dot": 0.00068374,
        "meta_mean_motion_ddot": 0,
        "tle_line1": "1 66871U 25281Z   25360.16668980  .00068374  00000+0  11649-2 0  9996",
        "tle_line2": "2 66871  43.0002  41.0281 0001032 237.2021 145.1047 15.50489077  3571"
      },
      "geometry": {
        "type": "Point",
        "coordinates": [
          0.106116664579747,
          -30.448766429521744
        ]
      }
    },
    {
      "type": "Feature",
      "properties": {
        "norad_id": 66872,
        "name": "STARLINK-36082",
        "group": "last-30-days",
        "lat": -29.42351792067222,
        "lon": 1.9650885619113307,
        "alt_km": 417.51182697275726,
        "timestamp": "2025-12-26T11:25:43.986535+00:00",
        "meta_object_name": "STARLINK-36082",
        "meta_object_id": "2025-281AA",
        "meta_epoch": "2025-12-26T04:00:01.998720",
        "meta_mean_motion": 15.50484723,
        "meta_eccentricity": 0.0001305,
        "meta_inclination": 43.0002,
        "meta_ra_of_asc_node": 41.0231,
        "meta_arg_of_pericenter": 243.972,
        "meta_mean_anomaly": 140.2516,
        "meta_ephemeris_type": 0,
        "meta_classification_type": "U",
        "meta_norad_cat_id": 66872,
        "meta_element_set_no": 999,
        "meta_rev_at_epoch": 344,
        "meta_bstar": 0.0012022,
        "meta_mean_motion_dot": 0.00070584,
        "meta_mean_motion_ddot": 0,
        "tle_line1": "1 66872U 25281AA  25360.16668980  .00070584  00000+0  12022-2 0  9999",
        "tle_line2": "2 66872  43.0002  41.0231 0001305 243.9720 140.2516 15.50484723  3446"
      },
      "geometry": {
        "type": "Point",
        "coordinates": [
          1.9650885619113307,
          -29.42351792067222
        ]
      }
    },
    {
      "type": "Feature",
      "properties": {
        "norad_id": 66873,
        "name": "STARLINK-36128",
        "group": "last-30-days",
        "lat": -26.200491221229452,
        "lon": 7.323265594483726,
        "alt_km": 417.4758787689143,
        "timestamp": "2025-12-26T11:25:43.986544+00:00",
        "meta_object_name": "STARLINK-36128",
        "meta_object_id": "2025-281AB",
        "meta_epoch": "2025-12-26T04:00:01.998720",
        "meta_mean_motion": 15.50484492,
        "meta_eccentricity": 0.0001232,
        "meta_inclination": 43.0003,
        "meta_ra_of_asc_node": 41.008,
        "meta_arg_of_pericenter": 237.384,
        "meta_mean_anomaly": 152.5859,
        "meta_ephemeris_type": 0,
        "meta_classification_type": "U",
        "meta_norad_cat_id": 66873,
        "meta_element_set_no": 999,
        "meta_rev_at_epoch": 358,
        "meta_bstar": 0.0012459,
        "meta_mean_motion_dot": 0.00073185,
        "meta_mean_motion_ddot": 0,
        "tle_line1": "1 66873U 25281AB  25360.16668980  .00073185  00000+0  12459-2 0  9994",
        "tle_line2": "2 66873  43.0003  41.0080 0001232 237.3840 152.5859 15.50484492  3583"
      },
      "geometry": {
        "type": "Point",
        "coordinates": [
          7.323265594483726,
          -26.200491221229452
        ]
      }
    },
    {
      "type": "Feature",
      "properties": {
        "norad_id": 66874,
        "name": "STARLINK-36129",
        "group": "last-30-days",
        "lat": -28.377018622828047,
        "lon": 3.7794968193418574,
        "alt_km": 417.49877953772375,
        "timestamp": "2025-12-26T11:25:43.986553+00:00",
        "meta_object_name": "STARLINK-36129",
        "meta_object_id": "2025-281AC",
        "meta_epoch": "2025-12-26T04:00:01.998720",
        "meta_mean_motion": 15.50481942,
        "meta_eccentricity": 0.0001175,
        "meta_inclination": 43.0003,
        "meta_ra_of_asc_node": 41.0182,
        "meta_arg_of_pericenter": 243.6286,
        "meta_mean_anomaly": 142.5045,
        "meta_ephemeris_type": 0,
        "meta_classification_type": "U",
        "meta_norad_cat_id": 66874,
        "meta_element_set_no": 999,
        "meta_rev_at_epoch": 357,
        "meta_bstar": 0.0013294,
        "meta_mean_motion_dot": 0.0007816,
        "meta_mean_motion_ddot": 0,
        "tle_line1": "1 66874U 25281AC  25360.16668980  .00078160  00000+0  13294-2 0  9991",
        "tle_line2": "2 66874  43.0003  41.0182 0001175 243.6286 142.5045 15.50481942  3579"
      },
      "geometry": {
        "type": "Point",
        "coordinates": [
          3.7794968193418574,
          -28.377018622828047
        ]
      }
    },
    {
      "type": "Feature",
      "properties": {
        "norad_id": 66875,
        "name": "STARLINK-36053",
        "group": "last-30-days",
        "lat": -25.079838012923332,
        "lon": 9.044199530229491,
        "alt_km": 417.3991734265992,
        "timestamp": "2025-12-26T11:25:43.986562+00:00",
        "meta_object_name": "STARLINK-36053",
        "meta_object_id": "2025-281AD",
        "meta_epoch": "2025-12-26T04:00:01.998720",
        "meta_mean_motion": 15.50485406,
        "meta_eccentricity": 0.0001236,
        "meta_inclination": 43.0001,
        "meta_ra_of_asc_node": 41.0026,
        "meta_arg_of_pericenter": 238.9634,
        "meta_mean_anomaly": 152.9257,
        "meta_ephemeris_type": 0,
        "meta_classification_type": "U",
        "meta_norad_cat_id": 66875,
        "meta_element_set_no": 999,
        "meta_rev_at_epoch": 358,
        "meta_bstar": 0.0012096,
        "meta_mean_motion_dot": 0.00071026,
        "meta_mean_motion_ddot": 0,
        "tle_line1": "1 66875U 25281AD  25360.16668980  .00071026  00000+0  12096-2 0  9995",
        "tle_line2": "2 66875  43.0001  41.0026 0001236 238.9634 152.9257 15.50485406  3587"
      },
      "geometry": {
        "type": "Point",
        "coordinates": [
          9.044199530229491,
          -25.079838012923332
        ]
      }
    },
    {
      "type": "Feature",
      "properties": {
        "norad_id": 66876,
        "name": "STARLINK-35702",
        "group": "last-30-days",
        "lat": -27.30009782903386,
        "lon": 5.568716673773891,
        "alt_km": 417.4629245572214,
        "timestamp": "2025-12-26T11:25:43.986571+00:00",
        "meta_object_name": "STARLINK-35702",
        "meta_object_id": "2025-281AE",
        "meta_epoch": "2025-12-26T04:00:01.998720",
        "meta_mean_motion": 15.50483455,
        "meta_eccentricity": 0.0001154,
        "meta_inclination": 43.0003,
        "meta_ra_of_asc_node": 41.0132,
        "meta_arg_of_pericenter": 243.0692,
        "meta_mean_anomaly": 144.9828,
        "meta_ephemeris_type": 0,
        "meta_classification_type": "U",
        "meta_norad_cat_id": 66876,
        "meta_element_set_no": 999,
        "meta_rev_at_epoch": 357,
        "meta_bstar": 0.0012749,
        "meta_mean_motion_dot": 0.00074914,
        "meta_mean_motion_ddot": 0,
        "tle_line1": "1 66876U 25281AE  25360.16668980  .00074914  00000+0  12749-2 0  9990",
        "tle_line2": "2 66876  43.0003  41.0132 0001154 243.0692 144.9828 15.50483455  3574"
      },
      "geometry": {
        "type": "Point",
        "coordinates": [
          5.568716673773891,
          -27.30009782903386
        ]
      }
    }
  ]
}